CCSDS_OMM_VERS = 2.0
CREATION_DATE  = 
ORIGINATOR     = 

OBJECT_NAME    = STARLINK-35664
OBJECT_ID      = 2025-244T
CENTER_NAME    = EARTH
REF_FRAME      = TEME
TIME_SYSTEM    = UTC
MEAN_ELEMENT_THEORY = SGP/SGP4

EPOCH          = 2025-11-24T20:00:04.000032
MEAN_MOTION    = 15.39568974
ECCENTRICITY   = .0001543
INCLINATION    = 53.1592
RA_OF_ASC_NODE = 0.1390
ARG_OF_PERICENTER = 65.3784
MEAN_ANOMALY   = 188.0180

EPHEMERIS_TYPE = 0
CLASSIFICATION_TYPE = U
NORAD_CAT_ID   = 66223
ELEMENT_SET_NO = 999
REV_AT_EPOCH   = 544
BSTAR          = .11456E-2
MEAN_MOTION_DOT = .45622E-3
MEAN_MOTION_DDOT = 0

CCSDS_OMM_VERS = 2.0
CREATION_DATE  = 
ORIGINATOR     = 

OBJECT_NAME    = STARLINK-35733
OBJECT_ID      = 2025-244U
CENTER_NAME    = EARTH
REF_FRAME      = TEME
TIME_SYSTEM    = UTC
MEAN_ELEMENT_THEORY = SGP/SGP4

EPOCH          = 2025-11-24T14:05:17.544768
MEAN_MOTION    = 15.46494543
ECCENTRICITY   = .0003332
INCLINATION    = 53.1608
RA_OF_ASC_NODE = 1.2297
ARG_OF_PERICENTER = 159.5916
MEAN_ANOMALY   = 200.5225

EPHEMERIS_TYPE = 0
CLASSIFICATION_TYPE = U
NORAD_CAT_ID   = 66224
ELEMENT_SET_NO = 999
REV_AT_EPOCH   = 552
BSTAR          = .15083E-2
MEAN_MOTION_DOT = .76376E-3
MEAN_MOTION_DDOT = 0

CCSDS_OMM_VERS = 2.0
CREATION_DATE  = 
ORIGINATOR     = 

OBJECT_NAME    = STARLINK-35734
OBJECT_ID      = 2025-244V
CENTER_NAME    = EARTH
REF_FRAME      = TEME
TIME_SYSTEM    = UTC
MEAN_ELEMENT_THEORY = SGP/SGP4

EPOCH          = 2025-11-24T20:00:04.000032
MEAN_MOTION    = 15.42413003
ECCENTRICITY   = .0001819
INCLINATION    = 53.1598
RA_OF_ASC_NODE = 0.0941
ARG_OF_PERICENTER = 82.7532
MEAN_ANOMALY   = 193.1245

EPHEMERIS_TYPE = 0
CLASSIFICATION_TYPE = U
NORAD_CAT_ID   = 66225
ELEMENT_SET_NO = 999
REV_AT_EPOCH   = 533
BSTAR          = -.4718E-1
MEAN_MOTION_DOT = -.186139E-1
MEAN_MOTION_DDOT = 0

CCSDS_OMM_VERS = 2.0
CREATION_DATE  = 
ORIGINATOR     = 

OBJECT_NAME    = STARLINK-34466
OBJECT_ID      = 2025-244W
CENTER_NAME    = EARTH
REF_FRAME      = TEME
TIME_SYSTEM    = UTC
MEAN_ELEMENT_THEORY = SGP/SGP4

EPOCH          = 2025-11-24T20:00:04.000032
MEAN_MOTION    = 15.45319246
ECCENTRICITY   = .0001518
INCLINATION    = 53.1600
RA_OF_ASC_NODE = 0.0611
ARG_OF_PERICENTER = 95.9346
MEAN_ANOMALY   = 196.0130

EPHEMERIS_TYPE = 0
CLASSIFICATION_TYPE = U
NORAD_CAT_ID   = 66226
ELEMENT_SET_NO = 999
REV_AT_EPOCH   = 565
BSTAR          = -.47318E-1
MEAN_MOTION_DOT = -.2039558E-1
MEAN_MOTION_DDOT = 0

CCSDS_OMM_VERS = 2.0
CREATION_DATE  = 
ORIGINATOR     = 

OBJECT_NAME    = STARLINK-34882
OBJECT_ID      = 2025-244X
CENTER_NAME    = EARTH
REF_FRAME      = TEME
TIME_SYSTEM    = UTC
MEAN_ELEMENT_THEORY = SGP/SGP4

EPOCH          = 2025-11-24T17:11:01.791744
MEAN_MOTION    = 15.46419949
ECCENTRICITY   = .0008305
INCLINATION    = 53.1606
RA_OF_ASC_NODE = 0.6153
ARG_OF_PERICENTER = 19.2590
MEAN_ANOMALY   = 340.8730

EPHEMERIS_TYPE = 0
CLASSIFICATION_TYPE = U
NORAD_CAT_ID   = 66227
ELEMENT_SET_NO = 999
REV_AT_EPOCH   = 554
BSTAR          = -.40569E-2
MEAN_MOTION_DOT = -.199646E-2
MEAN_MOTION_DDOT = 0

CCSDS_OMM_VERS = 2.0
CREATION_DATE  = 
ORIGINATOR     = 

OBJECT_NAME    = STARLINK-35731
OBJECT_ID      = 2025-244Y
CENTER_NAME    = EARTH
REF_FRAME      = TEME
TIME_SYSTEM    = UTC
MEAN_ELEMENT_THEORY = SGP/SGP4

EPOCH          = 2025-11-24T07:51:53.475264
MEAN_MOTION    = 15.49339259
ECCENTRICITY   = .0001441
INCLINATION    = 53.1597
RA_OF_ASC_NODE = 2.4560
ARG_OF_PERICENTER = 41.9102
MEAN_ANOMALY   = 318.2017

EPHEMERIS_TYPE = 0
CLASSIFICATION_TYPE = U
NORAD_CAT_ID   = 66228
ELEMENT_SET_NO = 999
REV_AT_EPOCH   = 548
BSTAR          = .15188E-2
MEAN_MOTION_DOT = .85036E-3
MEAN_MOTION_DDOT = 0

CCSDS_OMM_VERS = 2.0
CREATION_DATE  = 
ORIGINATOR     = 

OBJECT_NAME    = STARLINK-35758
OBJECT_ID      = 2025-244Z
CENTER_NAME    = EARTH
REF_FRAME      = TEME
TIME_SYSTEM    = UTC
MEAN_ELEMENT_THEORY = SGP/SGP4

EPOCH          = 2025-11-24T14:02:57.475680
MEAN_MOTION    = 15.49338232
ECCENTRICITY   = .0004256
INCLINATION    = 53.1596
RA_OF_ASC_NODE = 1.2202
ARG_OF_PERICENTER = 154.3024
MEAN_ANOMALY   = 205.8197

EPHEMERIS_TYPE = 0
CLASSIFICATION_TYPE = U
NORAD_CAT_ID   = 66229
ELEMENT_SET_NO = 999
REV_AT_EPOCH   = 552
BSTAR          = .17498E-2
MEAN_MOTION_DOT = .98225E-3
MEAN_MOTION_DDOT = 0

CCSDS_OMM_VERS = 2.0
CREATION_DATE  = 
ORIGINATOR     = 

OBJECT_NAME    = STARLINK-35736
OBJECT_ID      = 2025-244AA
CENTER_NAME    = EARTH
REF_FRAME      = TEME
TIME_SYSTEM    = UTC
MEAN_ELEMENT_THEORY = SGP/SGP4

EPOCH          = 2025-11-24T14:02:27.889728
MEAN_MOTION    = 15.49334895
ECCENTRICITY   = .0001951
INCLINATION    = 53.1598
RA_OF_ASC_NODE = 1.2179
ARG_OF_PERICENTER = 136.0257
MEAN_ANOMALY   = 224.0908

EPHEMERIS_TYPE = 0
CLASSIFICATION_TYPE = U
NORAD_CAT_ID   = 66230
ELEMENT_SET_NO = 999
REV_AT_EPOCH   = 552
BSTAR          = .10983E-2
MEAN_MOTION_DOT = .61173E-3
MEAN_MOTION_DDOT = 0

CCSDS_OMM_VERS = 2.0
CREATION_DATE  = 
ORIGINATOR     = 

OBJECT_NAME    = STARLINK-35735
OBJECT_ID      = 2025-244AB
CENTER_NAME    = EARTH
REF_FRAME      = TEME
TIME_SYSTEM    = UTC
MEAN_ELEMENT_THEORY = SGP/SGP4

EPOCH          = 2025-11-24T14:01:58.365984
MEAN_MOTION    = 15.49333264
ECCENTRICITY   = .0001311
INCLINATION    = 53.1600
RA_OF_ASC_NODE = 1.2150
ARG_OF_PERICENTER = 101.8054
MEAN_ANOMALY   = 258.3102

EPHEMERIS_TYPE = 0
CLASSIFICATION_TYPE = U
NORAD_CAT_ID   = 66231
ELEMENT_SET_NO = 999
REV_AT_EPOCH   = 552
BSTAR          = .11785E-2
MEAN_MOTION_DOT = .65704E-3
MEAN_MOTION_DDOT = 0

CCSDS_OMM_VERS = 2.0
CREATION_DATE  = 
ORIGINATOR     = 

OBJECT_NAME    = STARLINK-35753
OBJECT_ID      = 2025-244AC
CENTER_NAME    = EARTH
REF_FRAME      = TEME
TIME_SYSTEM    = UTC
MEAN_ELEMENT_THEORY = SGP/SGP4

EPOCH          = 2025-11-24T10:55:41.475360
MEAN_MOTION    = 15.49353515
ECCENTRICITY   = .0001277
INCLINATION    = 53.1605
RA_OF_ASC_NODE = 1.8365
ARG_OF_PERICENTER = 78.5188
MEAN_ANOMALY   = 281.5965

EPHEMERIS_TYPE = 0
CLASSIFICATION_TYPE = U
NORAD_CAT_ID   = 66232
ELEMENT_SET_NO = 999
REV_AT_EPOCH   = 550
BSTAR          = .98512E-3
MEAN_MOTION_DOT = .54812E-3
MEAN_MOTION_DDOT = 0

CCSDS_OMM_VERS = 2.0
CREATION_DATE  = 
ORIGINATOR     = 

OBJECT_NAME    = STARLINK-35626
OBJECT_ID      = 2025-244AD
CENTER_NAME    = EARTH
REF_FRAME      = TEME
TIME_SYSTEM    = UTC
MEAN_ELEMENT_THEORY = SGP/SGP4

EPOCH          = 2025-11-24T14:00:59.104224
MEAN_MOTION    = 15.49339197
ECCENTRICITY   = .0001259
INCLINATION    = 53.1600
RA_OF_ASC_NODE = 1.2120
ARG_OF_PERICENTER = 85.9736
MEAN_ANOMALY   = 274.1417

EPHEMERIS_TYPE = 0
CLASSIFICATION_TYPE = U
NORAD_CAT_ID   = 66233
ELEMENT_SET_NO = 999
REV_AT_EPOCH   = 552
BSTAR          = .1295E-2
MEAN_MOTION_DOT = .7232E-3
MEAN_MOTION_DDOT = 0

CCSDS_OMM_VERS = 2.0
CREATION_DATE  = 
ORIGINATOR     = 

OBJECT_NAME    = STARLINK-35537
OBJECT_ID      = 2025-245A
CENTER_NAME    = EARTH
REF_FRAME      = TEME
TIME_SYSTEM    = UTC
MEAN_ELEMENT_THEORY = SGP/SGP4

EPOCH          = 2025-11-24T20:00:04.000032
MEAN_MOTION    = 15.39594947
ECCENTRICITY   = .0001238
INCLINATION    = 53.1593
RA_OF_ASC_NODE = 54.0637
ARG_OF_PERICENTER = 95.7328
MEAN_ANOMALY   = 84.4521

EPHEMERIS_TYPE = 0
CLASSIFICATION_TYPE = U
NORAD_CAT_ID   = 66234
ELEMENT_SET_NO = 999
REV_AT_EPOCH   = 522
BSTAR          = .36134E-3
MEAN_MOTION_DOT = .14069E-3
MEAN_MOTION_DDOT = 0

